{
  "type": "FeatureCollection",
  "features": [
    {
      "type": "Feature",
      "properties": {
        "norad_id": 38474,
        "name": "IRIDIUM 33 DEB",
        "group": "iridium-33-debris",
        "lat": -36.91195491252999,
        "lon": -167.2359396794479,
        "alt_km": 742.7951577525328,
        "timestamp": "2025-12-12T20:43:07.421055+00:00",
        "meta_object_name": "IRIDIUM 33 DEB",
        "meta_object_id": "1997-051AAB",
        "meta_epoch": "2025-12-10T08:07:41.049120",
        "meta_mean_motion": 14.50673883,
        "meta_eccentricity": 0.00282895,
        "meta_inclination": 86.3478,
        "meta_ra_of_asc_node": 11.1125,
        "meta_arg_of_pericenter": 95.1128,
        "meta_mean_anomaly": 265.3307,
        "meta_ephemeris_type": 0,
        "meta_classification_type": "U",
        "meta_norad_cat_id": 38474,
        "meta_element_set_no": 999,
        "meta_rev_at_epoch": 65283,
        "meta_bstar": 0.00076503501,
        "meta_mean_motion_dot": 3.04e-05,
        "meta_mean_motion_ddot": 0,
        "tle_line1": "1 38474U 97051AAB 25344.33866955  .00003040  00000+0  76504-3 0  9992",
        "tle_line2": "2 38474  86.3478  11.1125 0028289  95.1128 265.3307 14.50673883652835"
      },
      "geometry": {
        "type": "Point",
        "coordinates": [
          -167.2359396794479,
          -36.91195491252999
        ]
      }
    },
    {
      "type": "Feature",
      "properties": {
        "norad_id": 39777,
        "name": "IRIDIUM 33 DEB",
        "group": "iridium-33-debris",
        "lat": -84.59029866206326,
        "lon": 43.20560264217844,
        "alt_km": 704.748565550356,
        "timestamp": "2025-12-12T20:43:07.421065+00:00",
        "meta_object_name": "IRIDIUM 33 DEB",
        "meta_object_id": "1997-051AAJ",
        "meta_epoch": "2025-12-12T06:18:37.183104",
        "meta_mean_motion": 14.5641282,
        "meta_eccentricity": 0.00598335,
        "meta_inclination": 85.9631,
        "meta_ra_of_asc_node": 175.2743,
        "meta_arg_of_pericenter": 188.1374,
        "meta_mean_anomaly": 171.887,
        "meta_ephemeris_type": 0,
        "meta_classification_type": "U",
        "meta_norad_cat_id": 39777,
        "meta_element_set_no": 999,
        "meta_rev_at_epoch": 60178,
        "meta_bstar": 0.0041697031,
        "meta_mean_motion_dot": 0.00019016,
        "meta_mean_motion_ddot": 0,
        "tle_line1": "1 39777U 97051AAJ 25346.26293036  .00019016  00000+0  41697-2 0  9991",
        "tle_line2": "2 39777  85.9631 175.2743 0059833 188.1374 171.8870 14.56412820601783"
      },
      "geometry": {
        "type": "Point",
        "coordinates": [
          43.20560264217844,
          -84.59029866206326
        ]
      }
    },
    {
      "type": "Feature",
      "properties": {
        "norad_id": 39778,
        "name": "IRIDIUM 33 DEB",
        "group": "iridium-33-debris",
        "lat": 79.55388959770556,
        "lon": -156.9242129106761,
        "alt_km": 701.4957500306364,
        "timestamp": "2025-12-12T20:43:07.421077+00:00",
        "meta_object_name": "IRIDIUM 33 DEB",
        "meta_object_id": "1997-051AAK",
        "meta_epoch": "2025-12-11T14:32:13.918560",
        "meta_mean_motion": 14.54250185,
        "meta_eccentricity": 0.00081089,
        "meta_inclination": 86.3777,
        "meta_ra_of_asc_node": 43.7175,
        "meta_arg_of_pericenter": 45.2066,
        "meta_mean_anomaly": 314.9799,
        "meta_ephemeris_type": 0,
        "meta_classification_type": "U",
        "meta_norad_cat_id": 39778,
        "meta_element_set_no": 999,
        "meta_rev_at_epoch": 60676,
        "meta_bstar": 0.001366485,
        "meta_mean_motion_dot": 5.812e-05,
        "meta_mean_motion_ddot": 0,
        "tle_line1": "1 39778U 97051AAK 25345.60571665  .00005812  00000+0  13665-2 0  9999",
        "tle_line2": "2 39778  86.3777  43.7175 0008108  45.2066 314.9799 14.54250185606763"
      },
      "geometry": {
        "type": "Point",
        "coordinates": [
          -156.9242129106761,
          79.55388959770556
        ]
      }
    },
    {
      "type": "Feature",
      "properties": {
        "norad_id": 39781,
        "name": "IRIDIUM 33 DEB",
        "group": "iridium-33-debris",
        "lat": -18.64757979693548,
        "lon": 79.15570286630765,
        "alt_km": 791.6827386019704,
        "timestamp": "2025-12-12T20:43:07.421089+00:00",
        "meta_object_name": "IRIDIUM 33 DEB",
        "meta_object_id": "1997-051AAN",
        "meta_epoch": "2025-12-12T01:28:05.155392",
        "meta_mean_motion": 14.2060455,
        "meta_eccentricity": 0.01772895,
        "meta_inclination": 86.3691,
        "meta_ra_of_asc_node": 258.2585,
        "meta_arg_of_pericenter": 275.4265,
        "meta_mean_anomaly": 145.4796,
        "meta_ephemeris_type": 0,
        "meta_classification_type": "U",
        "meta_norad_cat_id": 39781,
        "meta_element_set_no": 999,
        "meta_rev_at_epoch": 8097,
        "meta_bstar": 0.0073586238,
        "meta_mean_motion_dot": 0.00018593,
        "meta_mean_motion_ddot": 0,
        "tle_line1": "1 39781U 97051AAN 25346.06117078  .00018593  00000+0  73586-2 0  9996",
        "tle_line2": "2 39781  86.3691 258.2585 0177289 275.4265 145.4796 14.20604550 80970"
      },
      "geometry": {
        "type": "Point",
        "coordinates": [
          79.15570286630765,
          -18.64757979693548
        ]
      }
    },
    {
      "type": "Feature",
      "properties": {
        "norad_id": 39783,
        "name": "IRIDIUM 33 DEB",
        "group": "iridium-33-debris",
        "lat": -13.011560029395694,
        "lon": 76.11018661692687,
        "alt_km": 470.84185931499997,
        "timestamp": "2025-12-12T20:43:07.421102+00:00",
        "meta_object_name": "IRIDIUM 33 DEB",
        "meta_object_id": "1997-051AAQ",
        "meta_epoch": "2025-11-16T15:05:40.850592",
        "meta_mean_motion": 15.19327111,
        "meta_eccentricity": 0.00057535,
        "meta_inclination": 86.1306,
        "meta_ra_of_asc_node": 268.8004,
        "meta_arg_of_pericenter": 179.9151,
        "meta_mean_anomaly": 1.8316,
        "meta_ephemeris_type": 0,
        "meta_classification_type": "U",
        "meta_norad_cat_id": 39783,
        "meta_element_set_no": 999,
        "meta_rev_at_epoch": 60401,
        "meta_bstar": 0.010398125,
        "meta_mean_motion_dot": 0.00226179,
        "meta_mean_motion_ddot": 0,
        "tle_line1": "1 39783U 97051AAQ 25320.62894503  .00226179  00000+0  10398-1 0  9999",
        "tle_line2": "2 39783  86.1306 268.8004 0005753 179.9151   1.8316 15.19327111604018"
      },
      "geometry": {
        "type": "Point",
        "coordinates": [
          76.11018661692687,
          -13.011560029395694
        ]
      }
    },
    {
      "type": "Feature",
      "properties": {
        "norad_id": 40996,
        "name": "IRIDIUM 33 DEB",
        "group": "iridium-33-debris",
        "lat": 43.075734198569414,
        "lon": 4.771849090880942,
        "alt_km": 567.1221904301683,
        "timestamp": "2025-12-12T20:43:07.421115+00:00",
        "meta_object_name": "IRIDIUM 33 DEB",
        "meta_object_id": "1997-051ABJ",
        "meta_epoch": "2025-12-12T07:45:11.152800",
        "meta_mean_motion": 14.96217536,
        "meta_eccentricity": 0.00119593,
        "meta_inclination": 86.3523,
        "meta_ra_of_asc_node": 1.6046,
        "meta_arg_of_pericenter": 64.2736,
        "meta_mean_anomaly": 311.0223,
        "meta_ephemeris_type": 0,
        "meta_classification_type": "U",
        "meta_norad_cat_id": 40996,
        "meta_element_set_no": 999,
        "meta_rev_at_epoch": 62482,
        "meta_bstar": 0.0043106688,
        "meta_mean_motion_dot": 0.00048971,
        "meta_mean_motion_ddot": 0,
        "tle_line1": "1 40996U 97051ABJ 25346.32304575  .00048971  00000+0  43107-2 0  9994",
        "tle_line2": "2 40996  86.3523   1.6046 0011959  64.2736 311.0223 14.96217536624825"
      },
      "geometry": {
        "type": "Point",
        "coordinates": [
          4.771849090880942,
          43.075734198569414
        ]
      }
    },
    {
      "type": "Feature",
      "properties": {
        "norad_id": 40998,
        "name": "IRIDIUM 33 DEB",
        "group": "iridium-33-debris",
        "lat": 64.36635900167899,
        "lon": -133.97255405934368,
        "alt_km": 729.8188067627207,
        "timestamp": "2025-12-12T20:43:07.421125+00:00",
        "meta_object_name": "IRIDIUM 33 DEB",
        "meta_object_id": "1997-051ABL",
        "meta_epoch": "2025-12-09T22:57:49.203072",
        "meta_mean_motion": 14.45082428,
        "meta_eccentricity": 0.00095723,
        "meta_inclination": 86.3826,
        "meta_ra_of_asc_node": 54.8444,
        "meta_arg_of_pericenter": 91.708,
        "meta_mean_anomaly": 32.8835,
        "meta_ephemeris_type": 0,
        "meta_classification_type": "U",
        "meta_norad_cat_id": 40998,
        "meta_element_set_no": 999,
        "meta_rev_at_epoch": 6641,
        "meta_bstar": 0.00070534207,
        "meta_mean_motion_dot": 2.485e-05,
        "meta_mean_motion_ddot": 0,
        "tle_line1": "1 40998U 97051ABL 25343.95681948  .00002485  00000+0  70534-3 0  9999",
        "tle_line2": "2 40998  86.3826  54.8444 0009572  91.7080  32.8835 14.45082428 66416"
      },
      "geometry": {
        "type": "Point",
        "coordinates": [
          -133.97255405934368,
          64.36635900167899
        ]
      }
    }
  ]
}